start=new Date('2022-09-27T00:00:00.000Z').valueOf();
sats=[{"RA_OF_ASC_NODE":"232.3267","APOAPSIS":"573.930","PERIAPSIS":"570.274","TLE_LINE1":"1 49181U 21082BD  22269.30571772  .00003126  00000-0  26976-3 0  9994","CENTER_NAME":"EARTH","COUNTRY_CODE":"US","CLASSIFICATION_TYPE":"U","MEAN_ANOMALY":"109.0240","LAUNCH_DATE":"2021-09-14","OBJECT_TYPE":"PAYLOAD","SEMIMAJOR_AXIS":"6950.237","EPOCH":"2022-09-26T07:20:14.011008","REV_AT_EPOCH":"5837","DECAY_DATE":null,"TIME_SYSTEM":"UTC","TLE_LINE2":"2 49181  69.9988 232.3267 0002630 251.0634 109.0240 14.98315797 58374","MEAN_MOTION_DOT":"0.00003126","PERIOD":"96.108","SITE":"AFWTR","GP_ID":"213544464","ELEMENT_SET_NO":"999","ARG_OF_PERICENTER":"251.0634","OBJECT_ID":"2021-082BD","REF_FRAME":"TEME","MEAN_ELEMENT_THEORY":"SGP4","OBJECT_NAME":"STARLINK-3059","RCS_SIZE":"LARGE","INCLINATION":"69.9988","NORAD_CAT_ID":"49181","FILE":"3584345","EPHEMERIS_TYPE":"0","MEAN_MOTION_DDOT":"0.0000000000000","MEAN_MOTION":"14.98315797","ECCENTRICITY":"0.00026300","BSTAR":"0.00026976000000"},{"MEAN_ANOMALY":"308.4518","LAUNCH_DATE":"2021-11-13","OBJECT_TYPE":"PAYLOAD","SEMIMAJOR_AXIS":"6917.914","REV_AT_EPOCH":"4841","EPOCH":"2022-09-26T16:38:19.048128","DECAY_DATE":null,"TIME_SYSTEM":"UTC","TLE_LINE2":"2 49408  53.2150 125.4725 0002710  51.6718 308.4518 15.08828966 48416","MEAN_MOTION_DOT":"0.00002735","PERIOD":"95.438","RA_OF_ASC_NODE":"125.4725","APOAPSIS":"541.654","PERIAPSIS":"537.904","TLE_LINE1":"1 49408U 21104A   22269.69327602  .00002735  00000-0  18996-3 0  9992","CENTER_NAME":"EARTH","COUNTRY_CODE":"US","CLASSIFICATION_TYPE":"U","NORAD_CAT_ID":"49408","FILE":"3584555","EPHEMERIS_TYPE":"0","MEAN_MOTION_DDOT":"0.0000000000000","MEAN_MOTION":"15.08828966","ECCENTRICITY":"0.00027100","BSTAR":"0.00018996000000","SITE":"AFETR","GP_ID":"213600269","ELEMENT_SET_NO":"999","ARG_OF_PERICENTER":"51.6718","OBJECT_ID":"2021-104A","REF_FRAME":"TEME","MEAN_ELEMENT_THEORY":"SGP4","OBJECT_NAME":"STARLINK-3151","INCLINATION":"53.2150","RCS_SIZE":"LARGE"},{"FILE":"3584555","NORAD_CAT_ID":"49409","MEAN_MOTION":"15.08823570","MEAN_MOTION_DDOT":"0.0000000000000","EPHEMERIS_TYPE":"0","ECCENTRICITY":"0.00019200","BSTAR":"0.00006302100000","GP_ID":"213601021","SITE":"AFETR","ARG_OF_PERICENTER":"52.8251","ELEMENT_SET_NO":"999","OBJECT_ID":"2021-104B","REF_FRAME":"TEME","MEAN_ELEMENT_THEORY":"SGP4","OBJECT_NAME":"STARLINK-3075","INCLINATION":"53.2160","RCS_SIZE":"LARGE","LAUNCH_DATE":"2021-11-13","MEAN_ANOMALY":"307.2916","OBJECT_TYPE":"PAYLOAD","SEMIMAJOR_AXIS":"6917.931","DECAY_DATE":null,"EPOCH":"2022-09-26T21:45:40.664160","REV_AT_EPOCH":"4845","TLE_LINE2":"2 49409  53.2160 124.5108 0001920  52.8251 307.2916 15.08823570 48459","TIME_SYSTEM":"UTC","PERIOD":"95.439","MEAN_MOTION_DOT":"0.00000715","APOAPSIS":"541.124","RA_OF_ASC_NODE":"124.5108","TLE_LINE1":"1 49409U 21104B   22269.90672065  .00000715  00000-0  63021-4 0  9999","PERIAPSIS":"538.467","CENTER_NAME":"EARTH","CLASSIFICATION_TYPE":"U","COUNTRY_CODE":"US"},{"SITE":"AFETR","GP_ID":"213544488","ELEMENT_SET_NO":"999","ARG_OF_PERICENTER":"53.5037","OBJECT_ID":"2021-104C","REF_FRAME":"TEME","MEAN_ELEMENT_THEORY":"SGP4","OBJECT_NAME":"STARLINK-3147","INCLINATION":"53.2157","RCS_SIZE":"LARGE","FILE":"3584345","NORAD_CAT_ID":"49410","EPHEMERIS_TYPE":"0","MEAN_MOTION_DDOT":"0.0000000000000","MEAN_MOTION":"15.08832124","ECCENTRICITY":"0.00020560","BSTAR":"-0.00003738900000","RA_OF_ASC_NODE":"127.2236","APOAPSIS":"541.192","PERIAPSIS":"538.347","TLE_LINE1":"1 49410U 21104C   22269.30319801 -.00000883  00000-0 -37389-4 0  9997","CENTER_NAME":"EARTH","COUNTRY_CODE":"US","CLASSIFICATION_TYPE":"U","MEAN_ANOMALY":"306.6145","LAUNCH_DATE":"2021-11-13","OBJECT_TYPE":"PAYLOAD","SEMIMAJOR_AXIS":"6917.904","REV_AT_EPOCH":"4835","EPOCH":"2022-09-26T07:16:36.308064","DECAY_DATE":null,"TIME_SYSTEM":"UTC","TLE_LINE2":"2 49410  53.2157 127.2236 0002056  53.5037 306.6145 15.08832124 48351","MEAN_MOTION_DOT":"-0.00000883","PERIOD":"95.438"},{"MEAN_ANOMALY":"313.0013","LAUNCH_DATE":"2021-11-13","OBJECT_TYPE":"PAYLOAD","SEMIMAJOR_AXIS":"6917.873","REV_AT_EPOCH":"4857","EPOCH":"2022-09-26T19:50:24.356256","DECAY_DATE":null,"TIME_SYSTEM":"UTC","TLE_LINE2":"2 49411  53.2170 114.8756 0001859  47.1135 313.0013 15.08842413 48576","MEAN_MOTION_DOT":"0.00002222","PERIOD":"95.437","RA_OF_ASC_NODE":"114.8756","APOAPSIS":"541.024","PERIAPSIS":"538.452","TLE_LINE1":"1 49411U 21104D   22269.82667079  .00002222  00000-0  15765-3 0  9998","CENTER_NAME":"EARTH","COUNTRY_CODE":"US","CLASSIFICATION_TYPE":"U","FILE":"3584555","NORAD_CAT_ID":"49411","EPHEMERIS_TYPE":"0","MEAN_MOTION":"15.08842413","MEAN_MOTION_DDOT":"0.0000000000000","ECCENTRICITY":"0.00018590","BSTAR":"0.00015765000000","SITE":"AFETR","GP_ID":"213599519","ELEMENT_SET_NO":"999","ARG_OF_PERICENTER":"47.1135","OBJECT_ID":"2021-104D","REF_FRAME":"TEME","MEAN_ELEMENT_THEORY":"SGP4","OBJECT_NAME":"STARLINK-3162","RCS_SIZE":"LARGE","INCLINATION":"53.2170"},{"FILE":"3584555","NORAD_CAT_ID":"49412","MEAN_MOTION_DDOT":"0.0000000000000","MEAN_MOTION":"15.08838400","EPHEMERIS_TYPE":"0","BSTAR":"-0.00001080000000","ECCENTRICITY":"0.00013470","GP_ID":"213599769","SITE":"AFETR","OBJECT_ID":"2021-104E","ARG_OF_PERICENTER":"67.3551","ELEMENT_SET_NO":"999","MEAN_ELEMENT_THEORY":"SGP4","REF_FRAME":"TEME","RCS_SIZE":"LARGE","INCLINATION":"53.2162","OBJECT_NAME":"STARLINK-3144","LAUNCH_DATE":"2021-11-13","MEAN_ANOMALY":"292.7584","OBJECT_TYPE":"PAYLOAD","DECAY_DATE":null,"REV_AT_EPOCH":"4844","EPOCH":"2022-09-26T20:04:59.136384","SEMIMAJOR_AXIS":"6917.885","PERIOD":"95.438","MEAN_MOTION_DOT":"-0.00000460","TLE_LINE2":"2 49412  53.2162 124.8267 0001347  67.3551 292.7584 15.08838400 48447","TIME_SYSTEM":"UTC","APOAPSIS":"540.682","RA_OF_ASC_NODE":"124.8267","CENTER_NAME":"EARTH","TLE_LINE1":"1 49412U 21104E   22269.83679556 -.00000460  00000-0 -10800-4 0  9993","PERIAPSIS":"538.818","CLASSIFICATION_TYPE":"U","COUNTRY_CODE":"US"},{"PERIOD":"95.438","MEAN_MOTION_DOT":"0.00000319","TLE_LINE2":"2 49413  53.2165 115.4812 0001716  52.3648 307.7500 15.08838060 48553","TIME_SYSTEM":"UTC","DECAY_DATE":null,"REV_AT_EPOCH":"4855","EPOCH":"2022-09-26T16:34:20.464032","SEMIMAJOR_AXIS":"6917.886","OBJECT_TYPE":"PAYLOAD","LAUNCH_DATE":"2021-11-13","MEAN_ANOMALY":"307.7500","CLASSIFICATION_TYPE":"U","COUNTRY_CODE":"US","CENTER_NAME":"EARTH","TLE_LINE1":"1 49413U 21104F   22269.69051463  .00000319  00000-0  38127-4 0  9992","PERIAPSIS":"538.564","APOAPSIS":"540.938","RA_OF_ASC_NODE":"115.4812","BSTAR":"0.00003812700000","ECCENTRICITY":"0.00017160","MEAN_MOTION":"15.08838060","MEAN_MOTION_DDOT":"0.0000000000000","EPHEMERIS_TYPE":"0","NORAD_CAT_ID":"49413","FILE":"3584555","RCS_SIZE":"LARGE","INCLINATION":"53.2165","OBJECT_NAME":"STARLINK-3157","MEAN_ELEMENT_THEORY":"SGP4","REF_FRAME":"TEME","OBJECT_ID":"2021-104F","ARG_OF_PERICENTER":"52.3648","ELEMENT_SET_NO":"999","GP_ID":"213600521","SITE":"AFETR"},{"BSTAR":"0.00003569700000","ECCENTRICITY":"0.00014840","EPHEMERIS_TYPE":"0","MEAN_MOTION_DDOT":"0.0000000000000","MEAN_MOTION":"15.08838486","NORAD_CAT_ID":"49414","FILE":"3584345","INCLINATION":"53.2162","RCS_SIZE":"LARGE","OBJECT_NAME":"STARLINK-3146","MEAN_ELEMENT_THEORY":"SGP4","REF_FRAME":"TEME","OBJECT_ID":"2021-104G","ELEMENT_SET_NO":"999","ARG_OF_PERICENTER":"53.1879","SITE":"AFETR","GP_ID":"213543987","MEAN_MOTION_DOT":"0.00000280","PERIOD":"95.438","TIME_SYSTEM":"UTC","TLE_LINE2":"2 49414  53.2162 127.2335 0001484  53.1879 306.9249 15.08838486 48350","REV_AT_EPOCH":"4835","EPOCH":"2022-09-26T07:11:17.888640","DECAY_DATE":null,"SEMIMAJOR_AXIS":"6917.885","OBJECT_TYPE":"PAYLOAD","MEAN_ANOMALY":"306.9249","LAUNCH_DATE":"2021-11-13","COUNTRY_CODE":"US","CLASSIFICATION_TYPE":"U","CENTER_NAME":"EARTH","PERIAPSIS":"538.723","TLE_LINE1":"1 49414U 21104G   22269.29951260  .00000280  00000-0  35697-4 0  9999","RA_OF_ASC_NODE":"127.2335","APOAPSIS":"540.777"},{"RA_OF_ASC_NODE":"115.7958","APOAPSIS":"541.093","CENTER_NAME":"EARTH","PERIAPSIS":"538.397","TLE_LINE1":"1 49415U 21104H   22269.62059584 -.00000890  00000-0 -37826-4 0  9990","COUNTRY_CODE":"US","CLASSIFICATION_TYPE":"U","MEAN_ANOMALY":"315.2444","LAUNCH_DATE":"2021-11-13","OBJECT_TYPE":"PAYLOAD","EPOCH":"2022-09-26T14:53:39.480576","REV_AT_EPOCH":"4853","DECAY_DATE":null,"SEMIMAJOR_AXIS":"6917.880","MEAN_MOTION_DOT":"-0.00000890","PERIOD":"95.438","TIME_SYSTEM":"UTC","TLE_LINE2":"2 49415  53.2164 115.7958 0001948  44.8706 315.2444 15.08840110 48534","SITE":"AFETR","GP_ID":"213600020","OBJECT_ID":"2021-104H","ELEMENT_SET_NO":"999","ARG_OF_PERICENTER":"44.8706","MEAN_ELEMENT_THEORY":"SGP4","REF_FRAME":"TEME","INCLINATION":"53.2164","RCS_SIZE":"LARGE","OBJECT_NAME":"STARLINK-3159","FILE":"3584555","NORAD_CAT_ID":"49415","EPHEMERIS_TYPE":"0","MEAN_MOTION_DDOT":"0.0000000000000","MEAN_MOTION":"15.08840110","BSTAR":"-0.00003782600000","ECCENTRICITY":"0.00019480"},{"BSTAR":"-0.00009803300000","ECCENTRICITY":"0.00015850","MEAN_MOTION":"15.08832997","MEAN_MOTION_DDOT":"0.0000000000000","EPHEMERIS_TYPE":"0","NORAD_CAT_ID":"49416","FILE":"3584555","RCS_SIZE":"LARGE","INCLINATION":"53.2162","OBJECT_NAME":"STARLINK-3133","MEAN_ELEMENT_THEORY":"SGP4","REF_FRAME":"TEME","OBJECT_ID":"2021-104J","ARG_OF_PERICENTER":"61.0866","ELEMENT_SET_NO":"999","GP_ID":"213600270","SITE":"AFETR","PERIOD":"95.438","MEAN_MOTION_DOT":"-0.00001848","TLE_LINE2":"2 49416  53.2162 124.8806 0001585  61.0866 299.0285 15.08832997 48436","TIME_SYSTEM":"UTC","DECAY_DATE":null,"REV_AT_EPOCH":"4843","EPOCH":"2022-09-26T19:43:47.664480","SEMIMAJOR_AXIS":"6917.902","OBJECT_TYPE":"PAYLOAD","LAUNCH_DATE":"2021-11-13","MEAN_ANOMALY":"299.0285","CLASSIFICATION_TYPE":"U","COUNTRY_CODE":"US","CENTER_NAME":"EARTH","TLE_LINE1":"1 49416U 21104J   22269.82207945 -.00001848  00000-0 -98033-4 0  9990","PERIAPSIS":"538.670","APOAPSIS":"540.863","RA_OF_ASC_NODE":"124.8806"}];
